{"type": "FeatureCollection", "features": [ {"type": "Feature", "properties": {"norad_id": 66938, "name": "STARLINK-36155", "group": "last-30-days", "lat": -53.07457209589898, "lon": -81.45662477345506, "alt_km": 343.4750327747597, "timestamp": "2025-12-20T07:33:49.515815+00:00", "meta": {"OBJECT_NAME": "STARLINK-36155", "OBJECT_ID": "2025-286P", "EPOCH": "2025-12-19T22:00:01.999584", "MEAN_MOTION": 15.78562736, "ECCENTRICITY": 9.916e-05, "INCLINATION": 53.1554, "RA_OF_ASC_NODE": 14.3372, "ARG_OF_PERICENTER": 85.3739, "MEAN_ANOMALY": 77.5037, "EPHEMERIS_TYPE": 0, "CLASSIFICATION_TYPE": "U", "NORAD_CAT_ID": 66938, "ELEMENT_SET_NO": 999, "REV_AT_EPOCH": 314, "BSTAR": -0.0090553499, "MEAN_MOTION_DOT": -0.01426866, "MEAN_MOTION_DDOT": 0}, "tle": {"line1": "1 66938U 25286P   25353.91668981 -.01426866  00000+0 -90553-2 0  9999", "line2": "2 66938  53.1554  14.3372 0000991  85.3739  77.5037 15.78562736  3148"}}, "geometry": {"type": "Point", "coordinates": [-81.45662477345506, -53.07457209589898]}}, {"type": "Feature", "properties": {"norad_id": 66939, "name": "STARLINK-36154", "group": "last-30-days", "lat": -53.09080587131004, "lon": -74.41450900605952, "alt_km": 343.83412370587484, "timestamp": "2025-12-20T07:33:49.515825+00:00", "meta": {"OBJECT_NAME": "STARLINK-36154", "OBJECT_ID": "2025-286Q", "EPOCH": "2025-12-19T22:00:01.999584", "MEAN_MOTION": 15.78482953, "ECCENTRICITY": 0.00011055, "INCLINATION": 53.1551, "RA_OF_ASC_NODE": 14.3285, "ARG_OF_PERICENTER": 81.1234, "MEAN_ANOMALY": 86.1244, "EPHEMERIS_TYPE": 0, "CLASSIFICATION_TYPE": "U", "NORAD_CAT_ID": 66939, "ELEMENT_SET_NO": 999, "REV_AT_EPOCH": 314, "BSTAR": -0.0092331673, "MEAN_MOTION_DOT": -0.0144705, "MEAN_MOTION_DDOT": 0}, "tle": {"line1": "1 66939U 25286Q   25353.91668981 -.01447050  00000+0 -92332-2 0  9995", "line2": "2 66939  53.1551  14.3285 0001105  81.1234  86.1244 15.78482953  3149"}}, "geometry": {"type": "Point", "coordinates": [-74.41450900605952, -53.09080587131004]}}, {"type": "Feature", "properties": {"norad_id": 66940, "name": "STARLINK-36121", "group": "last-30-days", "lat": -52.95138270194828, "lon": -71.05529506835413, "alt_km": 343.74979982126024, "timestamp": "2025-12-20T07:33:49.515835+00:00", "meta": {"OBJECT_NAME": "STARLINK-36121", "OBJECT_ID": "2025-286R", "EPOCH": "2025-12-19T22:00:01.999584", "MEAN_MOTION": 15.78463135, "ECCENTRICITY": 8.798e-05, "INCLINATION": 53.1551, "RA_OF_ASC_NODE": 14.3235, "ARG_OF_PERICENTER": 91.3591, "MEAN_ANOMALY": 77.9543, "EPHEMERIS_TYPE": 0, "CLASSIFICATION_TYPE": "U", "NORAD_CAT_ID": 66940, "ELEMENT_SET_NO": 999, "REV_AT_EPOCH": 314, "BSTAR": -0.0092914816, "MEAN_MOTION_DOT": -0.01453827, "MEAN_MOTION_DDOT": 0}, "tle": {"line1": "1 66940U 25286R   25353.91668981 -.01453827  00000+0 -92915-2 0  9993", "line2": "2 66940  53.1551  14.3235 0000879  91.3591  77.9543 15.78463135  3143"}}, "geometry": {"type": "Point", "coordinates": [-71.05529506835413, -52.95138270194828]}}, {"type": "Feature", "properties": {"norad_id": 66941, "name": "STARLINK-36088", "group": "last-30-days", "lat": -53.134819552925784, "lon": -77.8453019375724, "alt_km": 343.58028140190163, "timestamp": "2025-12-20T07:33:49.515847+00:00", "meta": {"OBJECT_NAME": "STARLINK-36088", "OBJECT_ID": "2025-286S", "EPOCH": "2025-12-19T22:00:01.999584", "MEAN_MOTION": 15.78510471, "ECCENTRICITY": 8.753e-05, "INCLINATION": 53.1551, "RA_OF_ASC_NODE": 14.3323, "ARG_OF_PERICENTER": 93.5599, "MEAN_ANOMALY": 71.5741, "EPHEMERIS_TYPE": 0, "CLASSIFICATION_TYPE": "U", "NORAD_CAT_ID": 66941, "ELEMENT_SET_NO": 999, "REV_AT_EPOCH": 314, "BSTAR": -0.0091443708, "MEAN_MOTION_DOT": -0.01436183, "MEAN_MOTION_DDOT": 0}, "tle": {"line1": "1 66941U 25286S   25353.91668981 -.01436183  00000+0 -91444-2 0  9996", "line2": "2 66941  53.1551  14.3323 0000875  93.5599  71.5741 15.78510471  3146"}}, "geometry": {"type": "Point", "coordinates": [-77.8453019375724, -53.134819552925784]}}, {"type": "Feature", "properties": {"norad_id": 66942, "name": "STARLINK-36100", "group": "last-30-days", "lat": -52.71395257159449, "lon": -67.6789197764296, "alt_km": 343.80209299515354, "timestamp": "2025-12-20T07:33:49.515857+00:00", "meta": {"OBJECT_NAME": "STARLINK-36100", "OBJECT_ID": "2025-286T", "EPOCH": "2025-12-19T22:00:01.999584", "MEAN_MOTION": 15.78433872, "ECCENTRICITY": 8.362e-05, "INCLINATION": 53.1552, "RA_OF_ASC_NODE": 14.3189, "ARG_OF_PERICENTER": 88.9739, "MEAN_ANOMALY": 82.4463, "EPHEMERIS_TYPE": 0, "CLASSIFICATION_TYPE": "U", "NORAD_CAT_ID": 66942, "ELEMENT_SET_NO": 999, "REV_AT_EPOCH": 307, "BSTAR": -0.0093452838, "MEAN_MOTION_DOT": -0.01459516, "MEAN_MOTION_DDOT": 0}, "tle": {"line1": "1 66942U 25286T   25353.91668981 -.01459516  00000+0 -93453-2 0  9994", "line2": "2 66942  53.1552  14.3189 0000836  88.9739  82.4463 15.78433872  3072"}}, "geometry": {"type": "Point", "coordinates": [-67.6789197764296, -52.71395257159449]}}, {"type": "Feature", "properties": {"norad_id": 66943, "name": "STARLINK-36109", "group": "last-30-days", "lat": -52.35968531183092, "lon": -64.15885851166702, "alt_km": 344.02197371955026, "timestamp": "2025-12-20T07:33:49.515869+00:00", "meta": {"OBJECT_NAME": "STARLINK-36109", "OBJECT_ID": "2025-286U", "EPOCH": "2025-12-19T22:00:01.999584", "MEAN_MOTION": 15.78371098, "ECCENTRICITY": 8.754e-05, "INCLINATION": 53.1551, "RA_OF_ASC_NODE": 14.3141, "ARG_OF_PERICENTER": 93.0995, "MEAN_ANOMALY": 80.5923, "EPHEMERIS_TYPE": 0, "CLASSIFICATION_TYPE": "U", "NORAD_CAT_ID": 66943, "ELEMENT_SET_NO": 999, "REV_AT_EPOCH": 307, "BSTAR": -0.0094209961, "MEAN_MOTION_DOT": -0.01466271, "MEAN_MOTION_DDOT": 0}, "tle": {"line1": "1 66943U 25286U   25353.91668981 -.01466271  00000+0 -94210-2 0  9993", "line2": "2 66943  53.1551  14.3141 0000875  93.0995  80.5923 15.78371098  3075"}}, "geometry": {"type": "Point", "coordinates": [-64.15885851166702, -52.35968531183092]}}, {"type": "Feature", "properties": {"norad_id": 66944, "name": "STARLINK-36112", "group": "last-30-days", "lat": -51.938564562956714, "lon": -60.95066179642382, "alt_km": 344.13113274739044, "timestamp": "2025-12-20T07:33:49.515882+00:00", "meta": {"OBJECT_NAME": "STARLINK-36112", "OBJECT_ID": "2025-286V", "EPOCH": "2025-12-19T22:00:01.999584", "MEAN_MOTION": 15.78354562, "ECCENTRICITY": 9.541e-05, "INCLINATION": 53.1547, "RA_OF_ASC_NODE": 14.3098, "ARG_OF_PERICENTER": 92.7115, "MEAN_ANOMALY": 83.0303, "EPHEMERIS_TYPE": 0, "CLASSIFICATION_TYPE": "U", "NORAD_CAT_ID": 66944, "ELEMENT_SET_NO": 999, "REV_AT_EPOCH": 314, "BSTAR": -0.0094950247, "MEAN_MOTION_DOT": -0.01475499, "MEAN_MOTION_DDOT": 0}, "tle": {"line1": "1 66944U 25286V   25353.91668981 -.01475499  00000+0 -94950-2 0  9997", "line2": "2 66944  53.1547  14.3098 0000954  92.7115  83.0303 15.78354562  3145"}}, "geometry": {"type": "Point", "coordinates": [-60.95066179642382, -51.938564562956714]}}, {"type": "Feature", "properties": {"norad_id": 66945, "name": "STARLINK-36110", "group": "last-30-days", "lat": -51.397239112332784, "lon": -57.612072422175906, "alt_km": 344.25849444099094, "timestamp": "2025-12-20T07:33:49.515892+00:00", "meta": {"OBJECT_NAME": "STARLINK-36110", "OBJECT_ID": "2025-286W", "EPOCH": "2025-12-19T22:00:01.999584", "MEAN_MOTION": 15.78297599, "ECCENTRICITY": 9.238e-05, "INCLINATION": 53.1546, "RA_OF_ASC_NODE": 14.305, "ARG_OF_PERICENTER": 88.4819, "MEAN_ANOMALY": 89.4952, "EPHEMERIS_TYPE": 0, "CLASSIFICATION_TYPE": "U", "NORAD_CAT_ID": 66945, "ELEMENT_SET_NO": 999, "REV_AT_EPOCH": 314, "BSTAR": -0.0095780308, "MEAN_MOTION_DOT": -0.01483449, "MEAN_MOTION_DDOT": 0}, "tle": {"line1": "1 66945U 25286W   25353.91668981 -.01483449  00000+0 -95780-2 0  9994", "line2": "2 66945  53.1546  14.3050 0000923  88.4819  89.4952 15.78297599  3148"}}, "geometry": {"type": "Point", "coordinates": [-57.612072422175906, -51.397239112332784]}}, {"type": "Feature", "properties": {"norad_id": 66946, "name": "STARLINK-36115", "group": "last-30-days", "lat": -50.793027395515054, "lon": -54.49879400498933, "alt_km": 344.37500869123323, "timestamp": "2025-12-20T07:33:49.515902+00:00", "meta": {"OBJECT_NAME": "STARLINK-36115", "OBJECT_ID": "2025-286X", "EPOCH": "2025-12-19T22:00:01.999584", "MEAN_MOTION": 15.78266948, "ECCENTRICITY": 9.989e-05, "INCLINATION": 53.1547, "RA_OF_ASC_NODE": 14.3007, "ARG_OF_PERICENTER": 84.5476, "MEAN_ANOMALY": 95.5326, "EPHEMERIS_TYPE": 0, "CLASSIFICATION_TYPE": "U", "NORAD_CAT_ID": 66946, "ELEMENT_SET_NO": 999, "REV_AT_EPOCH": 314, "BSTAR": -0.0096456582, "MEAN_MOTION_DOT": -0.01490884, "MEAN_MOTION_DDOT": 0}, "tle": {"line1": "1 66946U 25286X   25353.91668981 -.01490884  00000+0 -96457-2 0  9998", "line2": "2 66946  53.1547  14.3007 0000998  84.5476  95.5326 15.78266948  3147"}}, "geometry": {"type": "Point", "coordinates": [-54.49879400498933, -50.793027395515054]}}, {"type": "Feature", "properties": {"norad_id": 66947, "name": "STARLINK-36089", "group": "last-30-days", "lat": -49.31596868504482, "lon": -48.42387546491204, "alt_km": 344.7119026793116, "timestamp": "2025-12-20T07:33:49.515912+00:00", "meta": {"OBJECT_NAME": "STARLINK-36089", "OBJECT_ID": "2025-286Y", "EPOCH": "2025-12-19T22:00:01.999584", "MEAN_MOTION": 15.78182043, "ECCENTRICITY": 0.00011012, "INCLINATION": 53.1547, "RA_OF_ASC_NODE": 14.2917, "ARG_OF_PERICENTER": 88.7049, "MEAN_ANOMALY": 95.6891, "EPHEMERIS_TYPE": 0, "CLASSIFICATION_TYPE": "U", "NORAD_CAT_ID": 66947, "ELEMENT_SET_NO": 999, "REV_AT_EPOCH": 314, "BSTAR": -0.0097911508, "MEAN_MOTION_DOT": -0.01505592, "MEAN_MOTION_DDOT": 0}, "tle": {"line1": "1 66947U 25286Y   25353.91668981 -.01505592  00000+0 -97912-2 0  9999", "line2": "2 66947  53.1547  14.2917 0001101  88.7049  95.6891 15.78182043  3147"}}, "geometry": {"type": "Point", "coordinates": [-48.42387546491204, -49.31596868504482]}}]}